ONEWEB-0415             
1 51624U 22012C   24187.51051672  .00000623  00000+0  17488-2 0  9994
2 51624  87.8934 177.7976 0001685  83.9118 276.2201 13.10371113117362
ONEWEB-0416             
1 51625U 22012D   24187.52212484  .00000032  00000+0  54786-4 0  9994
2 51625  87.8940 177.7912 0002020  88.4179 271.7180 13.10372150116122
ONEWEB-0422             
1 51626U 22012E   24187.40121516  .00000091  00000+0  20214-3 0  9990
2 51626  87.9177 147.5606 0002677  71.1588 288.9834 13.17649164120076
ONEWEB-0423             
1 51627U 22012F   24187.39476024  .00000075  00000+0  15889-3 0  9990
2 51627  87.9180 147.5632 0002210  83.5447 276.5936 13.17650776119967
ONEWEB-0425             
1 51628U 22012G   24187.45572415 -.00000361  00000+0 -10709-2 0  9994
2 51628  87.8939 177.7873 0002265  96.2322 263.9064 13.10371483116118
ONEWEB-0428             
1 51629U 22012H   24187.51217752  .00000520  00000+0  14548-2 0  9992
2 51629  87.8941 177.7916 0002029  78.2055 281.9299 13.10370423117362
ONEWEB-0431             
1 51630U 22012J   24187.48215060 -.00000036  00000+0 -13915-3 0  9992
2 51630  87.8940 177.7934 0001757  65.7106 294.4205 13.10376150116131
ONEWEB-0434             
1 51631U 22012K   24187.53539713 -.00000570  00000+0 -16691-2 0  9999
2 51631  87.8941 177.7989 0002181  84.4456 275.6920 13.10371177116129
